{"type": "FeatureCollection", "features": [ {"type": "Feature", "properties": {"norad_id": 37036, "name": "FENGYUN 1C DEB", "group": "fengyun-1c-debris", "lat": 22.598181642955083, "lon": -20.200550045855863, "alt_km": 796.527334670569, "timestamp": "2025-12-16T21:38:57.463589+00:00", "meta": {"OBJECT_NAME": "FENGYUN 1C DEB", "OBJECT_ID": "1999-025EDU", "EPOCH": "2025-12-16T06:08:42.790848", "MEAN_MOTION": 14.03573579, "ECCENTRICITY": 0.01241319, "INCLINATION": 98.7147, "RA_OF_ASC_NODE": 342.8405, "ARG_OF_PERICENTER": 45.4254, "MEAN_ANOMALY": 315.6966, "EPHEMERIS_TYPE": 0, "CLASSIFICATION_TYPE": "U", "NORAD_CAT_ID": 37036, "ELEMENT_SET_NO": 999, "REV_AT_EPOCH": 63797, "BSTAR": 0.00035913952, "MEAN_MOTION_DOT": 5.62e-06, "MEAN_MOTION_DDOT": 0}, "tle": {"line1": "1 37036U 99025EDU 25350.25605082  .00000562  00000+0  35914-3 0  9994", "line2": "2 37036  98.7147 342.8405 0124131  45.4254 315.6966 14.03573579637971"}}, "geometry": {"type": "Point", "coordinates": [-20.200550045855863, 22.598181642955083]}}, {"type": "Feature", "properties": {"norad_id": 37044, "name": "FENGYUN 1C DEB", "group": "fengyun-1c-debris", "lat": 32.323773153935235, "lon": 91.00815584980904, "alt_km": 1152.2107184511506, "timestamp": "2025-12-16T21:38:57.463599+00:00", "meta": {"OBJECT_NAME": "FENGYUN 1C DEB", "OBJECT_ID": "1999-025EEC", "EPOCH": "2025-12-15T13:56:51.493056", "MEAN_MOTION": 13.70865137, "ECCENTRICITY": 0.05083782, "INCLINATION": 98.9634, "RA_OF_ASC_NODE": 95.5012, "ARG_OF_PERICENTER": 153.8621, "MEAN_ANOMALY": 208.9173, "EPHEMERIS_TYPE": 0, "CLASSIFICATION_TYPE": "U", "NORAD_CAT_ID": 37044, "ELEMENT_SET_NO": 999, "REV_AT_EPOCH": 83897, "BSTAR": 0.0023464503, "MEAN_MOTION_DOT": 5.238e-05, "MEAN_MOTION_DDOT": 0}, "tle": {"line1": "1 37044U 99025EEC 25349.58115154  .00005238  00000+0  23465-2 0  9995", "line2": "2 37044  98.9634  95.5012 0508378 153.8621 208.9173 13.70865137838974"}}, "geometry": {"type": "Point", "coordinates": [91.00815584980904, 32.323773153935235]}}, {"type": "Feature", "properties": {"norad_id": 37046, "name": "FENGYUN 1C DEB", "group": "fengyun-1c-debris", "lat": 15.495078670999929, "lon": -172.564462027776, "alt_km": 832.5202588063985, "timestamp": "2025-12-16T21:38:57.463610+00:00", "meta": {"OBJECT_NAME": "FENGYUN 1C DEB", "OBJECT_ID": "1999-025EEE", "EPOCH": "2025-12-13T20:24:25.794720", "MEAN_MOTION": 14.24846266, "ECCENTRICITY": 0.00488893, "INCLINATION": 98.5444, "RA_OF_ASC_NODE": 2.0767, "ARG_OF_PERICENTER": 303.8823, "MEAN_ANOMALY": 55.7711, "EPHEMERIS_TYPE": 0, "CLASSIFICATION_TYPE": "U", "NORAD_CAT_ID": 37046, "ELEMENT_SET_NO": 999, "REV_AT_EPOCH": 64197, "BSTAR": 0.00095077436, "MEAN_MOTION_DOT": 2.204e-05, "MEAN_MOTION_DDOT": 0}, "tle": {"line1": "1 37046U 99025EEE 25347.85029855  .00002204  00000+0  95077-3 0  9996", "line2": "2 37046  98.5444   2.0767 0048889 303.8823  55.7711 14.24846266641978"}}, "geometry": {"type": "Point", "coordinates": [-172.564462027776, 15.495078670999929]}}, {"type": "Feature", "properties": {"norad_id": 37048, "name": "FENGYUN 1C DEB", "group": "fengyun-1c-debris", "lat": -18.64231586221823, "lon": 28.840022524017346, "alt_km": 925.4044244249162, "timestamp": "2025-12-16T21:38:57.463620+00:00", "meta": {"OBJECT_NAME": "FENGYUN 1C DEB", "OBJECT_ID": "1999-025EEG", "EPOCH": "2025-12-08T21:18:37.158048", "MEAN_MOTION": 13.6513296, "ECCENTRICITY": 0.025318, "INCLINATION": 98.885, "RA_OF_ASC_NODE": 204.5179, "ARG_OF_PERICENTER": 159.5311, "MEAN_ANOMALY": 272.4204, "EPHEMERIS_TYPE": 0, "CLASSIFICATION_TYPE": "U", "NORAD_CAT_ID": 37048, "ELEMENT_SET_NO": 999, "REV_AT_EPOCH": 62117, "BSTAR": 0.00022488, "MEAN_MOTION_DOT": 1.89e-06, "MEAN_MOTION_DDOT": 0}, "tle": {"line1": "1 37048U 99025EEG 25342.88793007  .00000189  00000+0  22488-3 0  9999", "line2": "2 37048  98.8850 204.5179 0253180 159.5311 272.4204 13.65132960621178"}}, "geometry": {"type": "Point", "coordinates": [28.840022524017346, -18.64231586221823]}}, {"type": "Feature", "properties": {"norad_id": 37054, "name": "FENGYUN 1C DEB", "group": "fengyun-1c-debris", "lat": -57.72784675379321, "lon": -12.998889527007874, "alt_km": 898.4228366196667, "timestamp": "2025-12-16T21:38:57.463630+00:00", "meta": {"OBJECT_NAME": "FENGYUN 1C DEB", "OBJECT_ID": "1999-025EEN", "EPOCH": "2025-12-12T16:25:24.585312", "MEAN_MOTION": 14.19450678, "ECCENTRICITY": 0.01011744, "INCLINATION": 98.5503, "RA_OF_ASC_NODE": 329.1465, "ARG_OF_PERICENTER": 105.4252, "MEAN_ANOMALY": 255.8127, "EPHEMERIS_TYPE": 0, "CLASSIFICATION_TYPE": "U", "NORAD_CAT_ID": 37054, "ELEMENT_SET_NO": 999, "REV_AT_EPOCH": 64428, "BSTAR": 0.00039484846, "MEAN_MOTION_DOT": 8.33e-06, "MEAN_MOTION_DDOT": 0}, "tle": {"line1": "1 37054U 99025EEN 25346.68431233  .00000833  00000+0  39485-3 0  9999", "line2": "2 37054  98.5503 329.1465 0101174 105.4252 255.8127 14.19450678644283"}}, "geometry": {"type": "Point", "coordinates": [-12.998889527007874, -57.72784675379321]}}, {"type": "Feature", "properties": {"norad_id": 37056, "name": "FENGYUN 1C DEB", "group": "fengyun-1c-debris", "lat": -56.00574620920177, "lon": 179.90433279590022, "alt_km": 771.3440178946257, "timestamp": "2025-12-16T21:38:57.463641+00:00", "meta": {"OBJECT_NAME": "FENGYUN 1C DEB", "OBJECT_ID": "1999-025EEQ", "EPOCH": "2025-12-15T08:09:36.578880", "MEAN_MOTION": 14.50459153, "ECCENTRICITY": 0.02688511, "INCLINATION": 98.9821, "RA_OF_ASC_NODE": 11.8015, "ARG_OF_PERICENTER": 138.0518, "MEAN_ANOMALY": 224.1615, "EPHEMERIS_TYPE": 0, "CLASSIFICATION_TYPE": "U", "NORAD_CAT_ID": 37056, "ELEMENT_SET_NO": 999, "REV_AT_EPOCH": 65449, "BSTAR": 0.00023121478, "MEAN_MOTION_DOT": 1.378e-05, "MEAN_MOTION_DDOT": 0}, "tle": {"line1": "1 37056U 99025EEQ 25349.34000670  .00001378  00000+0  23121-3 0  9999", "line2": "2 37056  98.9821  11.8015 0268851 138.0518 224.1615 14.50459153654498"}}, "geometry": {"type": "Point", "coordinates": [179.90433279590022, -56.00574620920177]}}, {"type": "Feature", "properties": {"norad_id": 37057, "name": "FENGYUN 1C DEB", "group": "fengyun-1c-debris", "lat": -75.66075792168188, "lon": 147.66234188896294, "alt_km": 1046.7463026055848, "timestamp": "2025-12-16T21:38:57.463651+00:00", "meta": {"OBJECT_NAME": "FENGYUN 1C DEB", "OBJECT_ID": "1999-025EER", "EPOCH": "2025-12-15T06:35:50.909856", "MEAN_MOTION": 13.96112011, "ECCENTRICITY": 0.02852276, "INCLINATION": 98.9234, "RA_OF_ASC_NODE": 4.0073, "ARG_OF_PERICENTER": 132.4515, "MEAN_ANOMALY": 230.1147, "EPHEMERIS_TYPE": 0, "CLASSIFICATION_TYPE": "U", "NORAD_CAT_ID": 37057, "ELEMENT_SET_NO": 999, "REV_AT_EPOCH": 63633, "BSTAR": 0.00043215899, "MEAN_MOTION_DOT": 7.94e-06, "MEAN_MOTION_DDOT": 0}, "tle": {"line1": "1 37057U 99025EER 25349.27489479  .00000794  00000+0  43216-3 0  9998", "line2": "2 37057  98.9234   4.0073 0285227 132.4515 230.1147 13.96112011636334"}}, "geometry": {"type": "Point", "coordinates": [147.66234188896294, -75.66075792168188]}}, {"type": "Feature", "properties": {"norad_id": 37061, "name": "FENGYUN 1C DEB", "group": "fengyun-1c-debris", "lat": 78.70726005289957, "lon": 8.942063480156087, "alt_km": 1120.147507470353, "timestamp": "2025-12-16T21:38:57.463661+00:00", "meta": {"OBJECT_NAME": "FENGYUN 1C DEB", "OBJECT_ID": "1999-025EEV", "EPOCH": "2025-12-14T10:46:55.905888", "MEAN_MOTION": 13.1354307, "ECCENTRICITY": 0.0801712, "INCLINATION": 98.0852, "RA_OF_ASC_NODE": 52.431, "ARG_OF_PERICENTER": 1.3377, "MEAN_ANOMALY": 358.9647, "EPHEMERIS_TYPE": 0, "CLASSIFICATION_TYPE": "U", "NORAD_CAT_ID": 37061, "ELEMENT_SET_NO": 999, "REV_AT_EPOCH": 8178, "BSTAR": 0.001824809, "MEAN_MOTION_DOT": 3.523e-05, "MEAN_MOTION_DDOT": 0}, "tle": {"line1": "1 37061U 99025EEV 25348.44925817  .00003523  00000+0  18248-2 0  9991", "line2": "2 37061  98.0852  52.4310 0801712   1.3377 358.9647 13.13543070 81789"}}, "geometry": {"type": "Point", "coordinates": [8.942063480156087, 78.70726005289957]}}, {"type": "Feature", "properties": {"norad_id": 37064, "name": "FENGYUN 1C DEB", "group": "fengyun-1c-debris", "lat": 71.14728072422622, "lon": 115.6919818486762, "alt_km": 758.2278307240304, "timestamp": "2025-12-16T21:38:57.463671+00:00", "meta": {"OBJECT_NAME": "FENGYUN 1C DEB", "OBJECT_ID": "1999-025EEY", "EPOCH": "2025-11-25T16:29:09.460320", "MEAN_MOTION": 14.15612933, "ECCENTRICITY": 0.01070067, "INCLINATION": 98.9095, "RA_OF_ASC_NODE": 121.83, "ARG_OF_PERICENTER": 150.7609, "MEAN_ANOMALY": 209.9612, "EPHEMERIS_TYPE": 0, "CLASSIFICATION_TYPE": "U", "NORAD_CAT_ID": 37064, "ELEMENT_SET_NO": 999, "REV_AT_EPOCH": 81294, "BSTAR": 0.0049331234, "MEAN_MOTION_DOT": 0.00010179, "MEAN_MOTION_DDOT": 0}, "tle": {"line1": "1 37064U 99025EEY 25329.68691505  .00010179  00000+0  49331-2 0  9995", "line2": "2 37064  98.9095 121.8300 0107006 150.7609 209.9612 14.15612933812947"}}, "geometry": {"type": "Point", "coordinates": [115.6919818486762, 71.14728072422622]}}, {"type": "Feature", "properties": {"norad_id": 37065, "name": "FENGYUN 1C DEB", "group": "fengyun-1c-debris", "lat": -7.202968797263726, "lon": -14.553927266267312, "alt_km": 885.9072597401246, "timestamp": "2025-12-16T21:38:57.463681+00:00", "meta": {"OBJECT_NAME": "FENGYUN 1C DEB", "OBJECT_ID": "1999-025EEZ", "EPOCH": "2025-12-13T18:30:23.335488", "MEAN_MOTION": 13.59126537, "ECCENTRICITY": 0.02987556, "INCLINATION": 103.2861, "RA_OF_ASC_NODE": 162.9273, "ARG_OF_PERICENTER": 240.3853, "MEAN_ANOMALY": 116.7203, "EPHEMERIS_TYPE": 0, "CLASSIFICATION_TYPE": "U", "NORAD_CAT_ID": 37065, "ELEMENT_SET_NO": 999, "REV_AT_EPOCH": 22216, "BSTAR": 0.0032978969, "MEAN_MOTION_DOT": 3.181e-05, "MEAN_MOTION_DDOT": 0}, "tle": {"line1": "1 37065U 99025EEZ 25347.77110342  .00003181  00000+0  32979-2 0  9996", "line2": "2 37065 103.2861 162.9273 0298755 240.3853 116.7203 13.59126537222160"}}, "geometry": {"type": "Point", "coordinates": [-14.553927266267312, -7.202968797263726]}}]}